CCSDS_OMM_VERS = 2.0
CREATION_DATE  = 
ORIGINATOR     = 

OBJECT_NAME    = STARLINK-34615
OBJECT_ID      = 2025-253C
CENTER_NAME    = EARTH
REF_FRAME      = TEME
TIME_SYSTEM    = UTC
MEAN_ELEMENT_THEORY = SGP/SGP4

EPOCH          = 2025-11-22T14:00:04.000032
MEAN_MOTION    = 15.70482374
ECCENTRICITY   = .00011649
INCLINATION    = 42.9991
RA_OF_ASC_NODE = 103.0163
ARG_OF_PERICENTER = 272.4757
MEAN_ANOMALY   = 288.0820

EPHEMERIS_TYPE = 0
CLASSIFICATION_TYPE = U
NORAD_CAT_ID   = 66321
ELEMENT_SET_NO = 999
REV_AT_EPOCH   = 373
BSTAR          = -.17749085E-1
MEAN_MOTION_DOT = -.1980749E-1
MEAN_MOTION_DDOT = 0

CCSDS_OMM_VERS = 2.0
CREATION_DATE  = 
ORIGINATOR     = 

OBJECT_NAME    = STARLINK-35292
OBJECT_ID      = 2025-253D
CENTER_NAME    = EARTH
REF_FRAME      = TEME
TIME_SYSTEM    = UTC
MEAN_ELEMENT_THEORY = SGP/SGP4

EPOCH          = 2025-11-22T14:00:04.000032
MEAN_MOTION    = 15.70482992
ECCENTRICITY   = .00011551
INCLINATION    = 42.9999
RA_OF_ASC_NODE = 102.9966
ARG_OF_PERICENTER = 273.1407
MEAN_ANOMALY   = 295.0845

EPHEMERIS_TYPE = 0
CLASSIFICATION_TYPE = U
NORAD_CAT_ID   = 66322
ELEMENT_SET_NO = 999
REV_AT_EPOCH   = 368
BSTAR          = -.17755094E-1
MEAN_MOTION_DOT = -.1981377E-1
MEAN_MOTION_DDOT = 0

CCSDS_OMM_VERS = 2.0
CREATION_DATE  = 
ORIGINATOR     = 

OBJECT_NAME    = STARLINK-35309
OBJECT_ID      = 2025-253E
CENTER_NAME    = EARTH
REF_FRAME      = TEME
TIME_SYSTEM    = UTC
MEAN_ELEMENT_THEORY = SGP/SGP4

EPOCH          = 2025-11-22T14:00:04.000032
MEAN_MOTION    = 15.70483050
ECCENTRICITY   = .00011553
INCLINATION    = 42.9996
RA_OF_ASC_NODE = 102.9835
ARG_OF_PERICENTER = 271.9073
MEAN_ANOMALY   = 302.0689

EPHEMERIS_TYPE = 0
CLASSIFICATION_TYPE = U
NORAD_CAT_ID   = 66323
ELEMENT_SET_NO = 999
REV_AT_EPOCH   = 368
BSTAR          = -.1775653E-1
MEAN_MOTION_DOT = -.1981523E-1
MEAN_MOTION_DDOT = 0

CCSDS_OMM_VERS = 2.0
CREATION_DATE  = 
ORIGINATOR     = 

OBJECT_NAME    = STARLINK-35506
OBJECT_ID      = 2025-253F
CENTER_NAME    = EARTH
REF_FRAME      = TEME
TIME_SYSTEM    = UTC
MEAN_ELEMENT_THEORY = SGP/SGP4

EPOCH          = 2025-11-22T14:00:04.000032
MEAN_MOTION    = 15.70481347
ECCENTRICITY   = .00012122
INCLINATION    = 42.9997
RA_OF_ASC_NODE = 103.0018
ARG_OF_PERICENTER = 272.1430
MEAN_ANOMALY   = 294.1654

EPHEMERIS_TYPE = 0
CLASSIFICATION_TYPE = U
NORAD_CAT_ID   = 66324
ELEMENT_SET_NO = 999
REV_AT_EPOCH   = 378
BSTAR          = -.17724923E-1
MEAN_MOTION_DOT = -.1978331E-1
MEAN_MOTION_DDOT = 0

CCSDS_OMM_VERS = 2.0
CREATION_DATE  = 
ORIGINATOR     = 

OBJECT_NAME    = STARLINK-35504
OBJECT_ID      = 2025-253G
CENTER_NAME    = EARTH
REF_FRAME      = TEME
TIME_SYSTEM    = UTC
MEAN_ELEMENT_THEORY = SGP/SGP4

EPOCH          = 2025-11-22T14:00:04.000032
MEAN_MOTION    = 15.70486861
ECCENTRICITY   = .00012377
INCLINATION    = 42.9998
RA_OF_ASC_NODE = 102.9926
ARG_OF_PERICENTER = 275.1043
MEAN_ANOMALY   = 295.0345

EPHEMERIS_TYPE = 0
CLASSIFICATION_TYPE = U
NORAD_CAT_ID   = 66325
ELEMENT_SET_NO = 999
REV_AT_EPOCH   = 368
BSTAR          = -.17793908E-1
MEAN_MOTION_DOT = -.1985546E-1
MEAN_MOTION_DDOT = 0

CCSDS_OMM_VERS = 2.0
CREATION_DATE  = 
ORIGINATOR     = 

OBJECT_NAME    = STARLINK-35479
OBJECT_ID      = 2025-253H
CENTER_NAME    = EARTH
REF_FRAME      = TEME
TIME_SYSTEM    = UTC
MEAN_ELEMENT_THEORY = SGP/SGP4

EPOCH          = 2025-11-22T14:00:04.000032
MEAN_MOTION    = 15.70483795
ECCENTRICITY   = .00012023
INCLINATION    = 42.9995
RA_OF_ASC_NODE = 102.9771
ARG_OF_PERICENTER = 273.0613
MEAN_ANOMALY   = 302.8315

EPHEMERIS_TYPE = 0
CLASSIFICATION_TYPE = U
NORAD_CAT_ID   = 66326
ELEMENT_SET_NO = 999
REV_AT_EPOCH   = 378
BSTAR          = -.17764567E-1
MEAN_MOTION_DOT = -.1982406E-1
MEAN_MOTION_DDOT = 0

CCSDS_OMM_VERS = 2.0
CREATION_DATE  = 
ORIGINATOR     = 

OBJECT_NAME    = STARLINK-35507
OBJECT_ID      = 2025-253J
CENTER_NAME    = EARTH
REF_FRAME      = TEME
TIME_SYSTEM    = UTC
MEAN_ELEMENT_THEORY = SGP/SGP4

EPOCH          = 2025-11-22T14:00:04.000032
MEAN_MOTION    = 15.70482692
ECCENTRICITY   = .00011902
INCLINATION    = 42.9995
RA_OF_ASC_NODE = 103.0069
ARG_OF_PERICENTER = 271.4341
MEAN_ANOMALY   = 292.9567

EPHEMERIS_TYPE = 0
CLASSIFICATION_TYPE = U
NORAD_CAT_ID   = 66327
ELEMENT_SET_NO = 999
REV_AT_EPOCH   = 378
BSTAR          = -.17741318E-1
MEAN_MOTION_DOT = -.1980027E-1
MEAN_MOTION_DDOT = 0

CCSDS_OMM_VERS = 2.0
CREATION_DATE  = 
ORIGINATOR     = 

OBJECT_NAME    = STARLINK-35460
OBJECT_ID      = 2025-253K
CENTER_NAME    = EARTH
REF_FRAME      = TEME
TIME_SYSTEM    = UTC
MEAN_ELEMENT_THEORY = SGP/SGP4

EPOCH          = 2025-11-22T14:00:04.000032
MEAN_MOTION    = 15.70486686
ECCENTRICITY   = .00012633
INCLINATION    = 42.9992
RA_OF_ASC_NODE = 102.9620
ARG_OF_PERICENTER = 272.5905
MEAN_ANOMALY   = 309.0509

EPHEMERIS_TYPE = 0
CLASSIFICATION_TYPE = U
NORAD_CAT_ID   = 66328
ELEMENT_SET_NO = 999
REV_AT_EPOCH   = 378
BSTAR          = -.1779132E-1
MEAN_MOTION_DOT = -.19853E-1
MEAN_MOTION_DDOT = 0

CCSDS_OMM_VERS = 2.0
CREATION_DATE  = 
ORIGINATOR     = 

OBJECT_NAME    = STARLINK-35505
OBJECT_ID      = 2025-253L
CENTER_NAME    = EARTH
REF_FRAME      = TEME
TIME_SYSTEM    = UTC
MEAN_ELEMENT_THEORY = SGP/SGP4

EPOCH          = 2025-11-22T14:00:04.000032
MEAN_MOTION    = 15.70485758
ECCENTRICITY   = .00011767
INCLINATION    = 42.9994
RA_OF_ASC_NODE = 103.0124
ARG_OF_PERICENTER = 272.0839
MEAN_ANOMALY   = 290.3874

EPHEMERIS_TYPE = 0
CLASSIFICATION_TYPE = U
NORAD_CAT_ID   = 66329
ELEMENT_SET_NO = 999
REV_AT_EPOCH   = 368
BSTAR          = -.17771891E-1
MEAN_MOTION_DOT = -.1983252E-1
MEAN_MOTION_DDOT = 0

CCSDS_OMM_VERS = 2.0
CREATION_DATE  = 
ORIGINATOR     = 

OBJECT_NAME    = STARLINK-35512
OBJECT_ID      = 2025-253M
CENTER_NAME    = EARTH
REF_FRAME      = TEME
TIME_SYSTEM    = UTC
MEAN_ELEMENT_THEORY = SGP/SGP4

EPOCH          = 2025-11-22T14:00:04.000032
MEAN_MOTION    = 15.70484430
ECCENTRICITY   = .00012301
INCLINATION    = 42.9994
RA_OF_ASC_NODE = 102.9875
ARG_OF_PERICENTER = 275.5520
MEAN_ANOMALY   = 296.5057

EPHEMERIS_TYPE = 0
CLASSIFICATION_TYPE = U
NORAD_CAT_ID   = 66330
ELEMENT_SET_NO = 999
REV_AT_EPOCH   = 368
BSTAR          = -.17773962E-1
MEAN_MOTION_DOT = -.1983399E-1
MEAN_MOTION_DDOT = 0

CCSDS_OMM_VERS = 2.0
CREATION_DATE  = 
ORIGINATOR     = 

OBJECT_NAME    = STARLINK-35257
OBJECT_ID      = 2025-253N
CENTER_NAME    = EARTH
REF_FRAME      = TEME
TIME_SYSTEM    = UTC
MEAN_ELEMENT_THEORY = SGP/SGP4

EPOCH          = 2025-11-22T14:00:04.000032
MEAN_MOTION    = 15.70482082
ECCENTRICITY   = .00012525
INCLINATION    = 42.9994
RA_OF_ASC_NODE = 102.9484
ARG_OF_PERICENTER = 266.7657
MEAN_ANOMALY   = 320.6306

EPHEMERIS_TYPE = 0
CLASSIFICATION_TYPE = U
NORAD_CAT_ID   = 66331
ELEMENT_SET_NO = 999
REV_AT_EPOCH   = 341
BSTAR          = -.17732145E-1
MEAN_MOTION_DOT = -.1979128E-1
MEAN_MOTION_DDOT = 0

CCSDS_OMM_VERS = 2.0
CREATION_DATE  = 
ORIGINATOR     = 

OBJECT_NAME    = STARLINK-35322
OBJECT_ID      = 2025-253P
CENTER_NAME    = EARTH
REF_FRAME      = TEME
TIME_SYSTEM    = UTC
MEAN_ELEMENT_THEORY = SGP/SGP4

EPOCH          = 2025-11-22T14:00:04.000032
MEAN_MOTION    = 15.70487601
ECCENTRICITY   = .00012966
INCLINATION    = 42.9995
RA_OF_ASC_NODE = 102.9722
ARG_OF_PERICENTER = 274.7879
MEAN_ANOMALY   = 303.0186

EPHEMERIS_TYPE = 0
CLASSIFICATION_TYPE = U
NORAD_CAT_ID   = 66332
ELEMENT_SET_NO = 999
REV_AT_EPOCH   = 368
BSTAR          = -.17805848E-1
MEAN_MOTION_DOT = -.1986823E-1
MEAN_MOTION_DDOT = 0

