STARLINK-34615          
1 66321U 25253C   25326.58337963 -.01980749  00000+0 -17749-1 0  9995
2 66321  42.9991 103.0163 0001164 272.4757 288.0820 15.70482374  3736
STARLINK-35292          
1 66322U 25253D   25326.58337963 -.01981377  00000+0 -17755-1 0  9991
2 66322  42.9999 102.9966 0001155 273.1407 295.0845 15.70482992  3689
STARLINK-35309          
1 66323U 25253E   25326.58337963 -.01981523  00000+0 -17757-1 0  9997
2 66323  42.9996 102.9835 0001155 271.9073 302.0689 15.70483050  3688
STARLINK-35506          
1 66324U 25253F   25326.58337963 -.01978331  00000+0 -17725-1 0  9996
2 66324  42.9997 103.0018 0001212 272.1430 294.1654 15.70481347  3780
STARLINK-35504          
1 66325U 25253G   25326.58337963 -.01985546  00000+0 -17794-1 0  9999
2 66325  42.9998 102.9926 0001237 275.1043 295.0345 15.70486861  3680
STARLINK-35479          
1 66326U 25253H   25326.58337963 -.01982406  00000+0 -17765-1 0  9990
2 66326  42.9995 102.9771 0001202 273.0613 302.8315 15.70483795  3786
STARLINK-35507          
1 66327U 25253J   25326.58337963 -.01980027  00000+0 -17741-1 0  9992
2 66327  42.9995 103.0069 0001190 271.4341 292.9567 15.70482692  3788
STARLINK-35460          
1 66328U 25253K   25326.58337963 -.01985300  00000+0 -17791-1 0  9997
2 66328  42.9992 102.9620 0001263 272.5905 309.0509 15.70486686  3789
STARLINK-35505          
1 66329U 25253L   25326.58337963 -.01983252  00000+0 -17772-1 0  9991
2 66329  42.9994 103.0124 0001176 272.0839 290.3874 15.70485758  3682
STARLINK-35512          
1 66330U 25253M   25326.58337963 -.01983399  00000+0 -17774-1 0  9997
2 66330  42.9994 102.9875 0001230 275.5520 296.5057 15.70484430  3688
STARLINK-35257          
1 66331U 25253N   25326.58337963 -.01979128  00000+0 -17732-1 0  9997
2 66331  42.9994 102.9484 0001252 266.7657 320.6306 15.70482082  3410
STARLINK-35322          
1 66332U 25253P   25326.58337963 -.01986823  00000+0 -17806-1 0  9990
2 66332  42.9995 102.9722 0001296 274.7879 303.0186 15.70487601  3682
